EWS-G1 (GOES 13)        
1 29155U 06018A   24132.59979696 -.00000016  00000+0  00000+0 0  9995
2 29155   2.5323  85.6774 0083533 254.2255 132.8455  0.99110530 35670
